NORAD_CAT_ID,OBJECT_NAME,OBJECT_TYPE,EPOCH,MEAN_MOTION,ECCENTRICITY,INCLINATION,RA_OF_ASC_NODE,ARG_OF_PERICENTER,MEAN_ANOMALY,BSTAR,MEAN_MOTION_DOT,MEAN_MOTION_DDOT,TLE_LINE0,TLE_LINE1,TLE_LINE2,SEMIMAJOR_AXIS,PERIOD,APOGEE,PERIGEE,DECAYED
54166.0,STARLINK-5280,PAYLOAD,2024-05-23 03:55:57,15.08838314,0.0001326,53.2172,67.0186,101.6633,258.4508,1.2726e-05,-8.5e-07,0.0,0 STARLINK-5280,1 54166U 22141K   24144.16385814 -.00000085  00000-0  12726-4 0  9999,2 54166  53.2172  67.0186 0001326 101.6633 258.4508 15.08838314 86898,6917.886,95.438,540.668,538.833,0.0
54166.0,STARLINK-5280,PAYLOAD,2024-05-24 03:46:44,15.08851867,0.0001513,53.2172,62.556,104.6239,255.4921,0.00044598,6.819e-05,0.0,0 STARLINK-5280,1 54166U 22141K   24145.15745626  .00006819  00000-0  44598-3 0  9991,2 54166  53.2172  62.5560 0001513 104.6239 255.4921 15.08851867 87049,6917.844,95.437,540.756,538.662,0.0
54166.0,STARLINK-5280,PAYLOAD,2024-05-24 22:51:21,15.08844453,0.0001555,53.2175,58.9845,120.6748,239.4397,0.00019757,2.858e-05,0.0,0 STARLINK-5280,1 54166U 22141K   24145.95233676  .00002858  00000-0  19757-3 0  9994,2 54166  53.2175  58.9845 0001555 120.6748 239.4397 15.08844453 87161,6917.867,95.437,540.808,538.656,0.0
54166.0,STARLINK-5280,PAYLOAD,2024-05-25 00:26:45,15.08841073,0.0001309,53.2173,58.6955,70.845,289.2684,0.0002006,2.906e-05,0.0,0 STARLINK-5280,1 54166U 22141K   24146.01858140  .00002906  00000-0  20060-3 0  9994,2 54166  53.2173  58.6955 0001309  70.8450 289.2684 15.08841073 87179,6917.877,95.437,540.648,538.837,0.0
54166.0,STARLINK-5280,PAYLOAD,2024-05-25 11:34:27,15.08845379,0.0001466,53.217,56.6155,71.6669,288.4483,0.00021654,3.16e-05,0.0,0 STARLINK-5280,1 54166U 22141K   24146.48225934  .00003160  00000-0  21654-3 0  9997,2 54166  53.2170  56.6155 0001466  71.6669 288.4483 15.08845379 87240,6917.864,95.437,540.743,538.715,0.0
54166.0,STARLINK-5280,PAYLOAD,2024-05-26 00:17:32,15.08837,0.0001714,53.2186,54.2345,89.297,270.8219,-3.0677e-05,-7.76e-06,0.0,0 STARLINK-5280,1 54166U 22141K   24147.01218342 -.00000776  00000-0 -30677-4 0  9990,2 54166  53.2186  54.2345 0001714  89.2970 270.8219 15.08837000 87321,6917.89,95.438,540.94,538.569,0.0
54166.0,STARLINK-5280,PAYLOAD,2024-05-26 22:32:56,15.08844798,0.0001462,53.217,50.0724,80.5531,279.5627,0.00028835,4.305e-05,0.0,0 STARLINK-5280,1 54166U 22141K   24147.93954334  .00004305  00000-0  28835-3 0  9991,2 54166  53.2170  50.0724 0001462  80.5531 279.5627 15.08844798 87462,6917.866,95.437,540.742,538.719,0.0
54166.0,STARLINK-5280,PAYLOAD,2024-05-27 03:19:05,15.08848257,0.0001502,53.2166,49.181,75.243,284.8728,0.00033938,5.119e-05,0.0,0 STARLINK-5280,1 54166U 22141K   24148.13826254  .00005119  00000-0  33938-3 0  9997,2 54166  53.2166  49.1810 0001502  75.2430 284.8728 15.08848257 87494,6917.855,95.437,540.759,538.681,0.0
54166.0,STARLINK-5280,PAYLOAD,2024-05-27 20:48:20,15.0884325,0.0001431,53.2179,45.9054,89.0678,271.0478,0.00012384,1.684e-05,0.0,0 STARLINK-5280,1 54166U 22141K   24148.86690270  .00001684  00000-0  12384-3 0  9999,2 54166  53.2179  45.9054 0001431  89.0678 271.0478 15.08843250 87601,6917.87,95.437,540.725,538.746,0.0
54166.0,STARLINK-5280,PAYLOAD,2024-05-27 22:23:43,15.08842189,0.0001402,53.2181,45.6076,95.7899,264.3253,9.7909e-05,1.271e-05,0.0,0 STARLINK-5280,1 54166U 22141K   24148.93314259  .00001271  00000-0  97909-4 0  9996,2 54166  53.2181  45.6076 0001402  95.7899 264.3253 15.08842189 87619,6917.874,95.437,540.709,538.769,0.0
54166.0,STARLINK-5280,PAYLOAD,2024-05-28 09:31:25,15.08840208,0.000136,53.218,43.527,90.4858,269.629,5.6317e-05,6.08e-06,0.0,0 STARLINK-5280,1 54166U 22141K   24149.39682364  .00000608  00000-0  56317-4 0  9993,2 54166  53.2180  43.5270 0001360  90.4858 269.6290 15.08840208 87687,6917.88,95.438,540.686,538.804,0.0
54166.0,STARLINK-5280,PAYLOAD,2024-05-28 22:14:30,15.08840414,0.0001335,53.2185,41.1482,87.7464,272.3681,6.636e-05,7.68e-06,0.0,0 STARLINK-5280,1 54166U 22141K   24149.92674480  .00000768  00000-0  66360-4 0  9998,2 54166  53.2185  41.1482 0001335  87.7464 272.3681 15.08840414 87768,6917.879,95.438,540.668,538.821,0.0
54166.0,STARLINK-5280,PAYLOAD,2024-05-29 03:00:40,15.08841009,0.0001362,53.2187,40.2565,88.3998,271.715,5.8656e-05,6.46e-06,0.0,0 STARLINK-5280,1 54166U 22141K   24150.12546395  .00000646  00000-0  58656-4 0  9999,2 54166  53.2187  40.2565 0001362  88.3998 271.7150 15.08841009 87799,6917.877,95.437,540.685,538.8,0.0
54166.0,STARLINK-5280,PAYLOAD,2024-05-29 22:05:17,15.08837954,0.0001346,53.2186,36.6883,95.3474,264.7672,9.5591e-05,1.234e-05,0.0,0 STARLINK-5280,1 54166U 22141K   24150.92034619  .00001234  00000-0  95591-4 0  9991,2 54166  53.2186  36.6883 0001346  95.3474 264.7672 15.08837954 87918,6917.887,95.438,540.683,538.82,0.0
54166.0,STARLINK-5280,PAYLOAD,2024-05-30 01:16:04,15.08839556,0.0001359,53.2187,36.0936,95.0213,265.0934,0.00010537,1.389e-05,0.0,0 STARLINK-5280,1 54166U 22141K   24151.05282512  .00001389  00000-0  10537-3 0  9990,2 54166  53.2187  36.0936 0001359  95.0213 265.0934 15.08839556 87931,6917.882,95.438,540.687,538.807,0.0
54166.0,STARLINK-5280,PAYLOAD,2024-05-30 20:20:41,15.08843735,0.0001387,53.219,32.5253,96.512,263.603,9.5394e-05,1.231e-05,0.0,0 STARLINK-5280,1 54166U 22141K   24151.84770376  .00001231  00000-0  95394-4 0  9998,2 54166  53.2190  32.5253 0001387  96.5120 263.6030 15.08843735 88051,6917.869,95.437,540.693,538.774,0.0
54166.0,STARLINK-5280,PAYLOAD,2024-05-30 21:56:04,15.08844166,0.0001386,53.2189,32.228,96.0488,264.0662,9.6992e-05,1.256e-05,0.0,0 STARLINK-5280,1 54166U 22141K   24151.91394333  .00001256  00000-0  96992-4 0  9993,2 54166  53.2189  32.2280 0001386  96.0488 264.0662 15.08844166 88063,6917.868,95.437,540.691,538.774,0.0
54166.0,STARLINK-5280,PAYLOAD,2024-05-30 23:31:27,15.0884218,0.0001288,53.2185,31.9303,88.3429,271.7711,9.8766e-05,1.284e-05,0.0,0 STARLINK-5280,1 54166U 22141K   24151.98018438  .00001284  00000-0  98766-4 0  9991,2 54166  53.2185  31.9303 0001288  88.3429 271.7711 15.08842180 88076,6917.874,95.437,540.63,538.848,0.0
54166.0,STARLINK-5280,PAYLOAD,2024-05-31 20:11:29,15.08828873,0.0001613,53.2195,28.0674,87.5977,272.5199,5.3254e-05,5.59e-06,0.0,0 STARLINK-5280,1 54166U 22141K   24152.84131438  .00000559  00000-0  53254-4 0  9990,2 54166  53.2195  28.0674 0001613  87.5977 272.5199 15.08828873 88203,6917.914,95.438,540.895,538.664,0.0
54166.0,STARLINK-5280,PAYLOAD,2024-05-31 21:46:52,15.08832831,0.0001525,53.219,27.7696,86.9164,273.2003,2.2658e-06,-2.52e-06,0.0,0 STARLINK-5280,1 54166U 22141K   24152.90755347 -.00000252  00000-0  22658-5 0  9994,2 54166  53.2190  27.7696 0001525  86.9164 273.2003 15.08832831 88213,6917.902,95.438,540.822,538.712,0.0
54166.0,STARLINK-5280,PAYLOAD,2024-06-01 00:57:38,15.08837132,0.0001541,53.2191,27.1745,90.2661,269.8508,4.3026e-05,3.97e-06,0.0,0 STARLINK-5280,1 54166U 22141K   24153.04003015  .00000397  00000-0  43026-4 0  9998,2 54166  53.2191  27.1745 0001541  90.2661 269.8508 15.08837132 88233,6917.889,95.438,540.82,538.688,0.0
54166.0,STARLINK-5280,PAYLOAD,2024-06-01 08:54:33,15.08845347,0.0001527,53.2192,25.6877,89.0162,271.1006,0.00011317,1.514e-05,0.0,0 STARLINK-5280,1 54166U 22141K   24153.37122369  .00001514  00000-0  11317-3 0  9997,2 54166  53.2192  25.6877 0001527  89.0162 271.1006 15.08845347 88280,6917.864,95.437,540.785,538.673,0.0
54166.0,STARLINK-5280,PAYLOAD,2024-06-01 21:37:39,15.08835974,0.0001463,53.2183,23.3083,82.5953,277.5205,3.2758e-05,2.33e-06,0.0,0 STARLINK-5280,1 54166U 22141K   24153.90115011  .00000233  00000-0  32758-4 0  9992,2 54166  53.2183  23.3083 0001463  82.5953 277.5205 15.08835974 88364,6917.893,95.438,540.77,538.746,0.0
54166.0,STARLINK-5280,PAYLOAD,2024-06-02 08:45:20,15.08844141,0.000167,53.2192,21.2253,87.2722,272.8462,0.00012668,1.729e-05,0.0,0 STARLINK-5280,1 54166U 22141K   24154.36482510  .00001729  00000-0  12668-3 0  9992,2 54166  53.2192  21.2253 0001670  87.2722 272.8462 15.08844141 88433,6917.868,95.437,540.888,538.577,0.0
54166.0,STARLINK-5280,PAYLOAD,2024-06-02 21:28:26,15.08838188,0.0001842,53.2197,18.8484,91.7394,268.3809,0.00017622,2.517e-05,0.0,0 STARLINK-5280,1 54166U 22141K   24154.89474835  .00002517  00000-0  17622-3 0  9992,2 54166  53.2197  18.8484 0001842  91.7394 268.3809 15.08838188 88510,6917.886,95.438,541.025,538.477,0.0
54166.0,STARLINK-5280,PAYLOAD,2024-06-03 00:39:12,15.08843239,0.0001932,53.2194,18.2523,100.5619,259.5591,5.9057e-05,6.52e-06,0.0,0 STARLINK-5280,1 54166U 22141K   24155.02722693  .00000652  00000-0  59057-4 0  9993,2 54166  53.2194  18.2523 0001932 100.5619 259.5591 15.08843239 88539,6917.87,95.437,541.072,538.399,0.0
54166.0,STARLINK-5280,PAYLOAD,2024-06-03 21:19:13,15.08827215,0.0001502,53.2203,14.3871,98.1279,261.9883,0.00043401,6.624e-05,0.0,0 STARLINK-5280,1 54166U 22141K   24155.88835340  .00006624  00000-0  43401-3 0  9991,2 54166  53.2203  14.3871 0001502  98.1279 261.9883 15.08827215 88661,6917.919,95.438,540.824,538.745,0.0
54166.0,STARLINK-5280,PAYLOAD,2024-06-04 00:29:59,15.08845962,0.000159,53.2217,13.7938,94.8267,265.2907,7.7582e-05,9.47e-06,0.0,0 STARLINK-5280,1 54166U 22141K   24156.02082517  .00000947  00000-0  77582-4 0  9998,2 54166  53.2217  13.7938 0001590  94.8267 265.2907 15.08845962 88685,6917.862,95.437,540.827,538.627,0.0
54166.0,STARLINK-5280,PAYLOAD,2024-06-04 21:10:00,15.0884142,0.0001501,53.223,9.9267,95.314,264.8024,7.69e-05,9.36e-06,0.0,0 STARLINK-5280,1 54166U 22141K   24156.88194724  .00000936  00000-0  76900-4 0  9997,2 54166  53.2230   9.9267 0001501  95.3140 264.8024 15.08841420 88815,6917.876,95.437,540.779,538.703,0.0
54166.0,STARLINK-5280,PAYLOAD,2024-06-05 13:03:51,15.08838045,0.0001606,53.2261,6.9554,95.0724,265.0452,6.4614e-05,7.4e-06,0.0,0 STARLINK-5280,1 54166U 22141K   24157.54434995  .00000740  00000-0  64614-4 0  9990,2 54166  53.2261   6.9554 0001606  95.0724 265.0452 15.08838045 88914,6917.886,95.438,540.862,538.64,0.0
